NORAD_CAT_ID,OBJECT_NAME,OBJECT_TYPE,EPOCH,MEAN_MOTION,ECCENTRICITY,INCLINATION,RA_OF_ASC_NODE,ARG_OF_PERICENTER,MEAN_ANOMALY,BSTAR,MEAN_MOTION_DOT,MEAN_MOTION_DDOT,TLE_LINE0,TLE_LINE1,TLE_LINE2,SEMIMAJOR_AXIS,PERIOD,APOGEE,PERIGEE,DECAYED
51860.0,STARLINK-3559,PAYLOAD,2023-10-17 22:56:12,15.08850122,0.0001899,53.2175,331.4678,96.8899,263.2309,0.00079038,0.00012317,0.0,0 STARLINK-3559,1 51860U 22022J   23290.95570212  .00012317  00000-0  79038-3 0  9999,2 51860  53.2175 331.4678 0001899  96.8899 263.2309 15.08850122 91213,6917.849,95.437,541.028,538.401,0.0
51860.0,STARLINK-3559,PAYLOAD,2023-10-18 11:39:17,15.08850625,0.0001593,53.2175,329.0881,96.1815,263.9358,0.00091591,0.00014323,0.0,0 STARLINK-3559,1 51860U 22022J   23291.48562268  .00014323  00000-0  91591-3 0  9997,2 51860  53.2175 329.0881 0001593  96.1815 263.9358 15.08850625 91291,6917.848,95.437,540.815,538.611,0.0
51860.0,STARLINK-3559,PAYLOAD,2023-10-18 19:36:13,15.08845209,0.0001702,53.2177,327.5996,92.7432,267.3755,0.00052082,8.012e-05,0.0,0 STARLINK-3559,1 51860U 22022J   23291.81682364  .00008012  00000-0  52082-3 0  9994,2 51860  53.2177 327.5996 0001702  92.7432 267.3755 15.08845209 91349,6917.864,95.437,540.907,538.552,0.0
51860.0,STARLINK-3559,PAYLOAD,2023-10-19 09:54:41,15.0885272,0.0001635,53.2168,324.9239,92.6346,267.4833,0.00049231,7.558e-05,0.0,0 STARLINK-3559,1 51860U 22022J   23292.41298036  .00007558  00000-0  49231-3 0  9996,2 51860  53.2168 324.9239 0001635  92.6346 267.4833 15.08852720 91432,6917.842,95.437,540.838,538.575,0.0
51860.0,STARLINK-3559,PAYLOAD,2023-10-19 19:27:00,15.08846763,0.0001818,53.218,323.1402,80.6751,279.4447,0.00024044,3.541e-05,0.0,0 STARLINK-3559,1 51860U 22022J   23292.81042205  .00003541  00000-0  24044-3 0  9998,2 51860  53.2180 323.1402 0001818  80.6751 279.4447 15.08846763 91499,6917.86,95.437,540.982,538.467,0.0
51860.0,STARLINK-3559,PAYLOAD,2023-10-20 11:20:52,15.08839556,0.0001592,53.218,320.166,87.1401,272.9773,2.8748e-05,1.7e-06,0.0,0 STARLINK-3559,1 51860U 22022J   23293.47282832  .00000170  00000-0  28748-4 0  9994,2 51860  53.2180 320.1660 0001592  87.1401 272.9773 15.08839556 91598,6917.882,95.438,540.848,538.645,0.0
51860.0,STARLINK-3559,PAYLOAD,2023-10-21 08:00:52,15.08846056,0.0001568,53.2179,316.2998,103.9604,256.1562,8.0625e-05,9.96e-06,0.0,0 STARLINK-3559,1 51860U 22022J   23294.33394338  .00000996  00000-0  80625-4 0  9993,2 51860  53.2179 316.2998 0001568 103.9604 256.1562 15.08846056 91729,6917.862,95.437,540.812,538.642,0.0
51860.0,STARLINK-3559,PAYLOAD,2023-10-21 19:08:34,15.08844228,0.0001442,53.217,314.2184,92.5743,267.5414,7.4001e-05,8.9e-06,0.0,0 STARLINK-3559,1 51860U 22022J   23294.79762509  .00000890  00000-0  74001-4 0  9996,2 51860  53.2170 314.2184 0001442  92.5743 267.5414 15.08844228 91791,6917.867,95.437,540.73,538.735,0.0
51860.0,STARLINK-3559,PAYLOAD,2023-10-22 07:51:39,15.08852643,0.0001449,53.2183,311.8388,82.3793,277.7363,0.00031384,4.712e-05,0.0,0 STARLINK-3559,1 51860U 22022J   23295.32754187  .00004712  00000-0  31384-3 0  9992,2 51860  53.2183 311.8388 0001449  82.3793 277.7363 15.08852643 91878,6917.842,95.437,540.709,538.704,0.0
51860.0,STARLINK-3559,PAYLOAD,2023-10-23 04:31:40,15.08839803,0.0001396,53.2186,307.9727,91.9724,268.1428,-7.7625e-06,-4.11e-06,0.0,0 STARLINK-3559,1 51860U 22022J   23296.18866863 -.00000411  00000-0 -77625-5 0  9996,2 51860  53.2186 307.9727 0001396  91.9724 268.1428 15.08839803 92000,6917.881,95.438,540.712,538.78,0.0
51860.0,STARLINK-3559,PAYLOAD,2023-10-23 07:42:27,15.08840626,0.0001482,53.218,307.3781,90.4435,269.6727,1.1173e-05,-1.1e-06,0.0,0 STARLINK-3559,1 51860U 22022J   23296.32114844 -.00000110  00000-0  11173-4 0  9997,2 51860  53.2180 307.3781 0001482  90.4435 269.6727 15.08840626 92022,6917.878,95.438,540.769,538.718,0.0
51860.0,STARLINK-3559,PAYLOAD,2023-10-24 07:33:14,15.08844968,0.0001451,53.2184,302.9183,93.2876,266.8282,0.0001002,1.307e-05,0.0,0 STARLINK-3559,1 51860U 22022J   23297.31474784  .00001307  00000-0  10020-3 0  9996,2 51860  53.2184 302.9183 0001451  93.2876 266.8282 15.08844968 92173,6917.865,95.437,540.734,538.726,0.0
51860.0,STARLINK-3559,PAYLOAD,2023-10-25 07:24:01,15.08835156,0.0001433,53.2189,298.4599,79.9791,280.1363,0.00013186,1.811e-05,0.0,0 STARLINK-3559,1 51860U 22022J   23298.30835521  .00001811  00000-0  13186-3 0  9992,2 51860  53.2189 298.4599 0001433  79.9791 280.1363 15.08835156 92320,6917.895,95.438,540.752,538.769,0.0
51860.0,STARLINK-3559,PAYLOAD,2023-10-26 08:50:11,15.08846098,0.000155,53.2182,293.6996,93.0681,267.0489,0.00012882,1.763e-05,0.0,0 STARLINK-3559,1 51860U 22022J   23299.36819001  .00001763  00000-0  12882-3 0  9992,2 51860  53.2182 293.6996 0001550  93.0681 267.0489 15.08846098 92483,6917.862,95.437,540.799,538.654,0.0
51860.0,STARLINK-3559,PAYLOAD,2023-10-27 08:40:58,15.08850449,0.0001853,53.218,289.2364,87.87,272.2504,0.00013129,1.803e-05,0.0,0 STARLINK-3559,1 51860U 22022J   23300.36178732  .00001803  00000-0  13129-3 0  9994,2 51860  53.2180 289.2364 0001853  87.8700 272.2504 15.08850449 92638,6917.848,95.437,540.995,538.432,0.0
51860.0,STARLINK-3559,PAYLOAD,2023-10-27 16:37:54,15.08839822,0.0001609,53.2179,287.7489,93.7455,266.3721,3.1298e-05,2.1e-06,0.0,0 STARLINK-3559,1 51860U 22022J   23300.69299118  .00000210  00000-0  31298-4 0  9991,2 51860  53.2179 287.7489 0001609  93.7455 266.3721 15.08839822 92681,6917.881,95.438,540.859,538.633,0.0
51860.0,STARLINK-3559,PAYLOAD,2023-10-27 22:59:27,15.08838569,0.0001918,53.2172,286.5623,90.0711,270.0501,2.6619e-05,1.35e-06,0.0,0 STARLINK-3559,1 51860U 22022J   23300.95795399  .00000135  00000-0  26619-4 0  9999,2 51860  53.2172 286.5623 0001918  90.0711 270.0501 15.08838569 92729,6917.885,95.438,541.077,538.423,0.0
51860.0,STARLINK-3559,PAYLOAD,2023-10-28 08:31:45,15.08844741,0.0001648,53.2169,284.7779,98.3586,261.7593,6.49e-05,7.45e-06,0.0,0 STARLINK-3559,1 51860U 22022J   23301.35538998  .00000745  00000-0  64900-4 0  9996,2 51860  53.2169 284.7779 0001648  98.3586 261.7593 15.08844741 92781,6917.866,95.437,540.871,538.591,0.0
51860.0,STARLINK-3559,PAYLOAD,2023-10-28 16:28:41,15.0883371,0.00018,53.2182,283.2877,102.2474,257.8719,-4.7942e-05,-1.051e-05,0.0,0 STARLINK-3559,1 51860U 22022J   23301.68659712 -.00001051  00000-0 -47942-4 0  9990,2 51860  53.2182 283.2877 0001800 102.2474 257.8719 15.08833710 92836,6917.9,95.438,541.01,538.519,0.0
51860.0,STARLINK-3559,PAYLOAD,2023-10-28 22:50:14,15.08835255,0.0001396,53.2181,282.1003,92.2687,267.8465,-5.2291e-05,-1.12e-05,0.0,0 STARLINK-3559,1 51860U 22022J   23301.95155689 -.00001120  00000-0 -52291-4 0  9994,2 51860  53.2181 282.1003 0001396  92.2687 267.8465 15.08835255 92877,6917.895,95.438,540.726,538.794,0.0
51860.0,STARLINK-3559,PAYLOAD,2023-10-29 08:22:32,15.08850647,0.0001539,53.2165,280.3167,99.1857,260.9309,0.00019235,2.775e-05,0.0,0 STARLINK-3559,1 51860U 22022J   23302.34899023  .00002775  00000-0  19235-3 0  9990,2 51860  53.2165 280.3167 0001539  99.1857 260.9309 15.08850647 92934,6917.848,95.437,540.778,538.648,0.0
51860.0,STARLINK-3559,PAYLOAD,2023-10-29 16:19:29,15.0883911,0.0001528,53.2174,278.83,95.4615,264.6552,0.0001374,1.899e-05,0.0,0 STARLINK-3559,1 51860U 22022J   23302.68019725  .00001899  00000-0  13740-3 0  9991,2 51860  53.2174 278.8300 0001528  95.4615 264.6552 15.08839110 92982,6917.883,95.438,540.805,538.691,0.0
51860.0,STARLINK-3559,PAYLOAD,2023-10-30 08:13:20,15.08841998,0.000172,53.2182,275.8551,110.5863,249.5314,0.00021081,3.069e-05,0.0,0 STARLINK-3559,1 51860U 22022J   23303.34259781  .00003069  00000-0  21081-3 0  9991,2 51860  53.2182 275.8551 0001720 110.5863 249.5314 15.08841998 93081,6917.874,95.437,540.929,538.549,0.0
51860.0,STARLINK-3559,PAYLOAD,2023-10-31 04:53:21,15.08839312,0.0001502,53.2179,271.9939,96.5321,263.5842,0.00014072,1.952e-05,0.0,0 STARLINK-3559,1 51860U 22022J   23304.20372220  .00001952  00000-0  14072-3 0  9992,2 51860  53.2179 271.9939 0001502  96.5321 263.5842 15.08839312 93218,6917.882,95.438,540.787,538.708,0.0
51860.0,STARLINK-3559,PAYLOAD,2023-10-31 14:25:40,15.0884249,0.0001401,53.217,270.2063,97.4462,262.669,8.3769e-05,1.046e-05,0.0,0 STARLINK-3559,1 51860U 22022J   23304.60116009  .00001046  00000-0  83769-4 0  9991,2 51860  53.2170 270.2063 0001401  97.4462 262.6690 15.08842490 93271,6917.873,95.437,540.707,538.769,0.0
51860.0,STARLINK-3559,PAYLOAD,2023-11-01 14:16:27,15.08846268,0.0001448,53.218,265.7477,86.6617,273.454,0.00017893,2.561e-05,0.0,0 STARLINK-3559,1 51860U 22022J   23305.59475875  .00002561  00000-0  17893-3 0  9996,2 51860  53.2180 265.7477 0001448  86.6617 273.4540 15.08846268 93421,6917.861,95.437,540.728,538.725,0.0
51860.0,STARLINK-3559,PAYLOAD,2023-11-01 17:27:13,15.08843524,0.0001417,53.2185,265.1571,97.3235,262.7918,0.00018503,2.658e-05,0.0,0 STARLINK-3559,1 51860U 22022J   23305.72724078  .00002658  00000-0  18503-3 0  9999,2 51860  53.2185 265.1571 0001417  97.3235 262.7918 15.08843524 93440,6917.87,95.437,540.715,538.754,0.0
51860.0,STARLINK-3559,PAYLOAD,2023-11-02 14:07:14,15.08844261,0.0001377,53.2175,261.2856,89.5026,270.6124,8.9967e-05,1.144e-05,0.0,0 STARLINK-3559,1 51860U 22022J   23306.58835879  .00001144  00000-0  89967-4 0  9998,2 51860  53.2175 261.2856 0001377  89.5026 270.6124 15.08844261 93578,6917.867,95.437,540.685,538.78,0.0
51860.0,STARLINK-3559,PAYLOAD,2023-11-02 20:28:46,15.08839617,0.0001322,53.217,260.0988,88.3628,271.7515,5.5841e-05,6.01e-06,0.0,0 STARLINK-3559,1 51860U 22022J   23306.85332148  .00000601  00000-0  55841-4 0  9990,2 51860  53.2170 260.0988 0001322  88.3628 271.7515 15.08839617 93611,6917.882,95.438,540.661,538.832,0.0
51860.0,STARLINK-3559,PAYLOAD,2023-11-03 04:25:42,15.08850655,0.0001374,53.2173,258.6115,92.0435,268.0714,0.00013336,1.836e-05,0.0,0 STARLINK-3559,1 51860U 22022J   23307.18451555  .00001836  00000-0  13336-3 0  9994,2 51860  53.2173 258.6115 0001374  92.0435 268.0714 15.08850655 93664,6917.848,95.437,540.663,538.762,0.0
